[Satellite]
VERSION=1.1
NAME=GPS BIIF-2  (PRN 01)
NICKNAME=GPS BIIF-2  (PRN 01)
TLE1=1 37753U 11036A   19317.14793774 -.00000040  00000-0  00000+0 0  9993
TLE2=2 37753  56.0229  65.8481 0089870  42.8387 281.6008  2.00567456 60979
STATUS=0
